STARLINK-36198          
1 67167U 25303E   25351.60835648 -.00002699  85337-5  00000+0 0  9993
2 67167  43.0100  69.0834 0011500 323.6500   9.4800 16.01284782    14
STARLINK-35903          
1 67168U 25303F   25351.60835648 -.00002699  85337-5  00000+0 0  9994
2 67168  43.0100  69.0834 0011500 323.6500   9.4800 16.01284782    15
STARLINK-35839          
1 67169U 25303G   25351.60835648 -.00002699  85337-5  00000+0 0  9995
2 67169  43.0100  69.0834 0011500 323.6500   9.4800 16.01284782    16
STARLINK-35863          
1 67170U 25303H   25351.60835648 -.00002699  85337-5  00000+0 0  9997
2 67170  43.0100  69.0834 0011500 323.6500   9.4800 16.01284782    18
STARLINK-35771          
1 67171U 25303J   25351.60835648 -.00002699  85337-5  00000+0 0  9998
2 67171  43.0100  69.0834 0011500 323.6500   9.4800 16.01284782    19
STARLINK-35762          
1 67172U 25303K   25351.60835648 -.00002699  85337-5  00000+0 0  9999
2 67172  43.0100  69.0834 0011500 323.6500   9.4800 16.01284782    10
STARLINK-36183          
1 67173U 25303L   25351.60835648 -.00002699  85337-5  00000+0 0  9990
2 67173  43.0100  69.0834 0011500 323.6500   9.4800 16.01284782    11
STARLINK-36210          
1 67174U 25303M   25351.60835648 -.00002699  85337-5  00000+0 0  9991
2 67174  43.0100  69.0834 0011500 323.6500   9.4800 16.01284782    12
STARLINK-35756          
1 67175U 25303N   25351.60835648 -.00002699  85337-5  00000+0 0  9992
2 67175  43.0100  69.0834 0011500 323.6500   9.4800 16.01284782    13
STARLINK-35785          
1 67176U 25303P   25351.60835648 -.00002699  85337-5  00000+0 0  9993
2 67176  43.0100  69.0834 0011500 323.6500   9.4800 16.01284782    14
STARLINK-35853          
1 67177U 25303Q   25351.60835648 -.00002699  85337-5  00000+0 0  9994
2 67177  43.0100  69.0834 0011500 323.6500   9.4800 16.01284782    15
STARLINK-35878          
1 67178U 25303R   25351.60835648 -.00002699  85337-5  00000+0 0  9995
2 67178  43.0100  69.0834 0011500 323.6500   9.4800 16.01284782    16
